[{"OBJECT_NAME":"STARLINK-31596","OBJECT_ID":"2024-057S","EPOCH":"2026-03-09T07:19:50.375424","MEAN_MOTION":15.27578435,"ECCENTRICITY":7.975e-5,"INCLINATION":43.0001,"RA_OF_ASC_NODE":188.9568,"ARG_OF_PERICENTER":268.4279,"MEAN_ANOMALY":91.6481,"EPHEMERIS_TYPE":0,"CLASSIFICATION_TYPE":"U","NORAD_CAT_ID":59336,"ELEMENT_SET_NO":999,"REV_AT_EPOCH":10978,"BSTAR":-2.9995755e-5,"MEAN_MOTION_DOT":-1.087e-5,"MEAN_MOTION_DDOT":0},{"OBJECT_NAME":"COSMOS 1862","OBJECT_ID":"1987-055A","EPOCH":"2026-03-09T22:37:02.390592","MEAN_MOTION":15.30492139,"ECCENTRICITY":0.00097484,"INCLINATION":82.4856,"RA_OF_ASC_NODE":47.1862,"ARG_OF_PERICENTER":26.6325,"MEAN_ANOMALY":333.5414,"EPHEMERIS_TYPE":0,"CLASSIFICATION_TYPE":"U","NORAD_CAT_ID":18152,"ELEMENT_SET_NO":999,"REV_AT_EPOCH":8987,"BSTAR":0.00034125048,"MEAN_MOTION_DOT":0.00010107,"MEAN_MOTION_DDOT":0}]
